{
  "norad_id": "46810",
  "name": "TIANQI-6",
  "line1": "1 46810U 20076D   26171.31764847  .00002890  00000+0  18974-3 0  9991",
  "line2": "2 46810  35.0002  29.2512 0010394 202.5453 157.4800 15.07200135309056",
  "fetched_at": "2026-06-22T01:52:45.758021+00:00"
}